     2.11           N: GPS NAV DATA                         RINEX VERSION / TYPE
teqc  2018Dec12     gpsops              20220610 01:03:59UTCPGM / RUN BY / DATE
Linux 2.6.32-573.12.1.x86_64|x86_64|gcc -static|Linux 64|=+ COMMENT
CHPI                                    MARKER NAME         COMMENT
41609M003                               MARKER NUMBER       COMMENT
4164613.9484 -4162456.9866 -2445028.7316                    COMMENT
This data is provided as a public service by NASA/JPL.      COMMENT
No warranty is expressed or implied regarding suitability   COMMENT
for use.  For further information, contact:                 COMMENT
ggnops at jpl dot nasa dot gov                              COMMENT
                                                            END OF HEADER
26 22  6  9  4  0  0.0 2.111583016813D-04 2.501110429876D-12 0.000000000000D+00
    7.600000000000D+01 6.128125000000D+01 5.208788395516D-09-1.402111703512D+00
    3.194436430931D-06 6.948564667255D-03 5.215406417847D-06 5.153758523941D+03
    3.600000000000D+05 7.450580596924D-08 2.041913742361D-01-1.899898052216D-07
    9.377186815984D-01 2.688125000000D+02 3.877081084561D-01-8.483210502625D-09
    2.321525272275D-11 1.000000000000D+00 2.213000000000D+03 0.000000000000D+00
    2.000000000000D+00 0.000000000000D+00 6.984919309616D-09 7.600000000000D+01
    3.551820000000D+05 4.000000000000D+00
10 22  6  9  4  0  0.0-4.475726746023D-04-1.512034941697D-11 0.000000000000D+00
    8.700000000000D+01-2.343750000000D+00 4.526259965467D-09-1.168893167264D+00
   -1.676380634308D-08 7.625238155015D-03 5.468726158142D-06 5.153678323746D+03
    3.600000000000D+05 1.396983861923D-07-2.883792726799D+00-1.862645149231D-09
    9.740779202667D-01 2.774062500000D+02-2.498043496373D+00-8.148910863418D-09
    3.943021385525D-10 1.000000000000D+00 2.213000000000D+03 0.000000000000D+00
    2.000000000000D+00 0.000000000000D+00 2.328306436539D-09 8.700000000000D+01
    3.569520000000D+05 4.000000000000D+00
13 22  6  9  4  0  0.0 3.265812993050D-04 6.934897101019D-12 0.000000000000D+00
    5.200000000000D+01-4.696875000000D+01 4.493758611655D-09 2.623822031462D+00
   -2.508983016014D-06 5.977095686831D-03 8.704140782356D-06 5.153677257538D+03
    3.600000000000D+05-5.401670932770D-08-1.698874876318D+00-8.381903171539D-08
    9.683793276974D-01 2.161875000000D+02 9.145087621264D-01-7.864970464732D-09
   -2.075086435679D-10 1.000000000000D+00 2.213000000000D+03 0.000000000000D+00
    2.000000000000D+00 0.000000000000D+00-1.164153218269D-08 5.200000000000D+01
    3.581820000000D+05 4.000000000000D+00
16 22  6  9  4  0  0.0-5.075703375041D-04-2.842170943040D-12 0.000000000000D+00
    1.110000000000D+02 4.993750000000D+01 4.504116185947D-09-2.277561642796D+00
    2.590939402580D-06 1.270960923284D-02 4.837289452553D-06 5.153658149719D+03
    3.600000000000D+05 6.146728992462D-08 3.498952587934D-01-1.136213541031D-07
    9.692623099400D-01 2.912812500000D+02 7.296412585900D-01-8.048549540109D-09
    7.893185925733D-11 1.000000000000D+00 2.213000000000D+03 0.000000000000D+00
    2.000000000000D+00 0.000000000000D+00-1.024454832077D-08 1.110000000000D+02
    3.595380000000D+05 4.000000000000D+00
18 22  6  9  6  0  0.0 1.473054289818D-04-1.068656274583D-11 0.000000000000D+00
    2.390000000000D+02 3.093750000000D+00 4.002309569401D-09 2.261497466641D+00
    1.695007085800D-07 2.376473858021D-03 9.242445230484D-06 5.153735879898D+03
    3.672000000000D+05-4.470348358154D-08 2.374700915916D+00-9.313225746155D-09
    9.717594847688D-01 2.066875000000D+02 3.011314420944D+00-7.837826476933D-09
    1.507205638307D-10 1.000000000000D+00 2.213000000000D+03 0.000000000000D+00
    2.000000000000D+00 0.000000000000D+00-8.381903171539D-09 1.007000000000D+03
    3.600180000000D+05 4.000000000000D+00
23 22  6  9  6  0  0.0-2.697715535760D-05-2.160049916711D-12 0.000000000000D+00
    2.500000000000D+01 1.156250000000D+00 4.545546483114D-09 1.162012576385D+00
    7.450580596924D-09 2.218059729785D-03 5.567446351051D-06 5.153710308075D+03
    3.672000000000D+05 2.793967723846D-08-2.909275472372D+00 3.911554813385D-08
    9.691697730569D-01 2.783437500000D+02 2.995599106864D+00-8.153553913962D-09
    3.385855320179D-10 1.000000000000D+00 2.213000000000D+03 0.000000000000D+00
    2.000000000000D+00 0.000000000000D+00-8.381903171539D-09 2.810000000000D+02
    3.600180000000D+05 4.000000000000D+00
25 22  6  9  6  0  0.0 3.351252526045D-04 4.661160346586D-12 0.000000000000D+00
    8.600000000000D+01 5.650000000000D+01 4.933062624716D-09 3.283269835653D-01
    3.060325980186D-06 1.048101601191D-02 5.239620804787D-06 5.153661756516D+03
    3.672000000000D+05-5.960464477539D-08 2.532207576724D-01 1.136213541031D-07
    9.568868144281D-01 2.750000000000D+02 1.004566992407D+00-8.558213626807D-09
   -9.393248409357D-11 1.000000000000D+00 2.213000000000D+03 0.000000000000D+00
    2.000000000000D+00 0.000000000000D+00 5.587935447693D-09 8.600000000000D+01
    3.600180000000D+05 4.000000000000D+00
29 22  6  9  6  0  0.0-5.222046747804D-04-3.865352482535D-12 0.000000000000D+00
    5.400000000000D+01-3.068750000000D+01 4.020167456111D-09-2.081576343679D+00
   -1.670792698860D-06 2.220164169557D-03 6.750226020813D-06 5.153696697235D+03
    3.672000000000D+05-3.911554813385D-08 1.382737050537D+00 6.705522537231D-08
    9.805411771901D-01 2.598437500000D+02 2.289987657258D+00-7.949616847736D-09
   -3.532289991199D-10 1.000000000000D+00 2.213000000000D+03 0.000000000000D+00
    2.000000000000D+00 0.000000000000D+00-1.024454832077D-08 5.400000000000D+01
    3.600180000000D+05 4.000000000000D+00
26 22  6  9  6  0  0.0 2.111759968102D-04 2.501110429876D-12 0.000000000000D+00
    7.700000000000D+01 5.596875000000D+01 5.358080328410D-09-3.518883237554D-01
    2.829357981682D-06 6.948852562346D-03 5.021691322327D-06 5.153759777069D+03
    3.672000000000D+05 6.332993507385D-08 2.041302476670D-01 6.332993507385D-08
    9.377176400008D-01 2.693437500000D+02 3.876181682526D-01-8.700362405017D-09
   -7.214586230761D-11 1.000000000000D+00 2.213000000000D+03 0.000000000000D+00
    2.000000000000D+00 0.000000000000D+00 6.984919309616D-09 7.700000000000D+01
    3.600180000000D+05 4.000000000000D+00
10 22  6  9  6  0  0.0-4.476816393435D-04-1.512034941697D-11 0.000000000000D+00
    8.800000000000D+01-2.562500000000D+00 4.480186617756D-09-1.186858284040D-01
   -7.450580596924D-09 7.625517668203D-03 5.654990673065D-06 5.153679014206D+03
    3.672000000000D+05 6.519258022308D-08-2.883851669232D+00 1.136213541031D-07
    9.740803077490D-01 2.799062500000D+02-2.498073111686D+00-8.225699776270D-09
    3.671581507536D-10 1.000000000000D+00 2.213000000000D+03 0.000000000000D+00
    2.000000000000D+00 0.000000000000D+00 2.328306436539D-09 8.800000000000D+01
    3.600180000000D+05 4.000000000000D+00
15 22  6  9  6  0  0.0-5.467282608151D-05 2.955857780762D-12 0.000000000000D+00
    8.300000000000D+01-6.228125000000D+01 5.453084285706D-09 3.121279139290D+00
   -3.445893526077D-06 1.410502486397D-02 6.798654794693D-06 5.153567510605D+03
    3.672000000000D+05 8.940696716309D-08-1.962742974135D+00-2.551823854446D-07
    9.301146762668D-01 2.323125000000D+02 1.091731752130D+00-8.309989001540D-09
   -1.042900583853D-10 1.000000000000D+00 2.213000000000D+03 0.000000000000D+00
    2.000000000000D+00 0.000000000000D+00-1.071020960808D-08 8.300000000000D+01
    3.600180000000D+05 4.000000000000D+00
 5 22  6  9  5 59 44.0-8.486863225698D-05-1.364242052659D-12 0.000000000000D+00
    9.000000000000D+00 6.093750000000D+00 4.635907389865D-09-1.741843970930D+00
    3.725290298462D-07 6.031050579622D-03 5.071982741356D-06 5.153733562469D+03
    3.671840000000D+05 8.009374141693D-08-2.923002247759D+00 1.862645149231D-08
    9.613018075646D-01 2.734375000000D+02 1.034739064830D+00-8.183912321369D-09
    4.489472718845D-10 1.000000000000D+00 2.213000000000D+03 0.000000000000D+00
    2.000000000000D+00 0.000000000000D+00-1.117587089539D-08 9.000000000000D+00
    3.600180000000D+05 4.000000000000D+00
31 22  6  9  6  0  0.0-1.810602843761D-04-1.591615728103D-12 0.000000000000D+00
    9.100000000000D+01 4.181250000000D+01 4.727696927554D-09 7.593620120072D-01
    2.423301339149D-06 1.043606235180D-02 1.054629683495D-05 5.153754890442D+03
    3.672000000000D+05 1.862645149231D-09-7.630819976339D-01 1.732259988785D-07
    9.549185547050D-01 1.711250000000D+02 3.941761096229D-01-8.156054018102D-09
   -9.893269237232D-11 1.000000000000D+00 2.213000000000D+03 0.000000000000D+00
    2.000000000000D+00 0.000000000000D+00-1.350417733192D-08 9.100000000000D+01
    3.600180000000D+05 4.000000000000D+00
12 22  6  9  6  0  0.0-2.283114008605D-04-5.911715561524D-12 0.000000000000D+00
    5.200000000000D+01 4.921875000000D+01 4.586619622546D-09 6.212502494980D-01
    2.555549144745D-06 8.620290318504D-03 5.315989255905D-06 5.153785003662D+03
    3.672000000000D+05-9.685754776001D-08 3.312963576288D-01 4.656612873077D-08
    9.693803176898D-01 2.826875000000D+02 1.303309913232D+00-8.356062349252D-09
   -9.714690370134D-11 1.000000000000D+00 2.213000000000D+03 0.000000000000D+00
    2.000000000000D+00 0.000000000000D+00-1.257285475731D-08 5.200000000000D+01
    3.600180000000D+05 4.000000000000D+00
13 22  6  9  6  0  0.0 3.266315907240D-04 6.934897101019D-12 0.000000000000D+00
    5.900000000000D+01-5.912500000000D+01 4.551618164595D-09-2.609188312698D+00
   -3.226101398468D-06 5.978856584989D-03 8.475035429001D-06 5.153673963547D+03
    3.672000000000D+05 5.774199962616D-08-1.698932123228D+00-1.024454832077D-07
    9.683778794085D-01 2.198437500000D+02 9.145137887129D-01-7.922115702203D-09
   -1.364342544629D-10 1.000000000000D+00 2.213000000000D+03 0.000000000000D+00
    2.000000000000D+00 0.000000000000D+00-1.164153218269D-08 5.900000000000D+01
    3.600180000000D+05 4.000000000000D+00
